GPS BIIA-10 (PRN 32)    
1 20959U 90103A   13108.78815396 -.00000026  00000-0  00000+0 0  9413
2 20959  54.4024 226.2640 0116495 337.6014 159.7705  2.00558914164018
GPS BIIA-14 (PRN 26)    
1 22014U 92039A   13109.43085840 -.00000010  00000-0  00000+0 0  7302
2 22014  56.1227 286.5591 0210246  70.3975 322.4179  2.00564863145750
GPS BIIA-21 (PRN 09)    
1 22700U 93042A   13109.22389256 -.00000062  00000-0  00000+0 0  9774
2 22700  56.3911 341.0672 0171227  94.6365 110.3339  2.00666771145098
GPS BIIA-22 (PRN 30)    
1 22779U 93054A   13108.91138450 -.00000059  00000-0  00000+0 0  6555
2 22779  55.2072  35.5298 0107457  92.4305  17.7824  2.00566338143841
GPS BIIA-23 (PRN 04)    
1 22877U 93068A   13109.22230485  .00000030  00000-0  00000+0 0  3336
2 22877  53.7300 161.0781 0101006  54.7916 348.6862  2.00550378142745
GPS BIIA-24 (PRN 06)    
1 23027U 94016A   13109.10709678  .00000054  00000-0  00000+0 0  2920
2 23027  53.9062  97.6898 0081005 338.8159 197.7398  2.00562101140049
GPS BIIA-25 (PRN 03)    
1 23833U 96019A   13108.88332690  .00000045  00000-0  10000-3 0  4905
2 23833  53.5231  93.1637 0159004  73.1675 288.5743  2.00561795125029
GPS BIIA-26 (PRN 10)    
1 23953U 96041A   13109.34076924 -.00000028  00000-0  00000+0 0  9801
2 23953  54.0741 222.2741 0121995  44.9646  27.8366  2.00568355122815
GPS BIIR-2  (PRN 13)    
1 24876U 97035A   13109.25990788 -.00000010  00000-0  00000+0 0  4483
2 24876  56.2682 286.9809 0049707 121.1499 249.5229  2.00553123115353
GPS BIIA-28 (PRN 08)    
1 25030U 97067A   13109.07372188 -.00000068  00000-0  00000+0 0  3964
2 25030  57.1947 347.5989 0129312 195.4381 305.2383  2.00557529113238
GPS BIIR-3  (PRN 11)    
1 25933U 99055A   13109.00008546  .00000042  00000-0  10000-3 0  8839
2 25933  50.9263 144.4844 0136879  66.2305 295.2672  2.00561190 99166
GPS BIIR-4  (PRN 20)    
1 26360U 00025A   13109.19523485 -.00000029  00000-0  00000+0 0  9749
2 26360  53.1861 218.2850 0052443  73.4970 339.3827  2.00553323 94851
GPS BIIR-5  (PRN 28)    
1 26407U 00040A   13109.16993312 -.00000042  00000-0  00000+0 0  9256
2 26407  56.3132  44.4772 0188282 258.5510 248.9257  2.00567369 93539
GPS BIIR-6  (PRN 14)    
1 26605U 00071A   13109.42058168 -.00000011  00000-0  00000+0 0  9403
2 26605  55.8493 285.3143 0070030 244.2375  14.7040  2.00556233 91134
GPS BIIR-7  (PRN 18)    
1 26690U 01004A   13109.48562220 -.00000029  00000-0  00000+0 0  8205
2 26690  53.1447 221.3374 0143654 239.2260 156.1654  2.00571694 89557
GPS BIIR-8  (PRN 16)    
1 27663U 03005A   13108.91160727 -.00000043  00000-0  00000+0 0  2516
2 27663  56.4028  44.1265 0071171   2.3505  78.4001  2.00569303 74880
GPS BIIR-9  (PRN 21)    
1 27704U 03010A   13108.54870736  .00000021  00000-0  00000+0 0  1340
2 27704  53.3743 161.3289 0204324 237.2168 262.1349  2.00560045 73673
GPS BIIR-10 (PRN 22)    
1 28129U 03058A   13109.51438574 -.00000029  00000-0  00000+0 0  7066
2 28129  53.0155 221.4899 0066956 243.6744 143.8213  2.00565589 68400
GPS BIIR-11 (PRN 19)    
1 28190U 04009A   13109.23713201  .00000067  00000-0  00000+0 0  7031
2 28190  55.1449 106.5206 0091278  15.1154 214.5893  2.00561327 66565
GPS BIIR-12 (PRN 23)    
1 28361U 04023A   13109.24277537 -.00000013  00000-0  00000+0 0  5204
2 28361  54.7931 281.9974 0084803 194.9765 188.6416  2.00557733 64652
GPS BIIR-13 (PRN 02)    
1 28474U 04045A   13109.32453843  .00000033  00000-0  00000+0 0  4062
2 28474  53.7854 160.1291 0124006 210.8253 236.0844  2.00566158 62012
GPS BIIRM-1 (PRN 17)    
1 28874U 05038A   13109.25000811  .00000065  00000-0  00000+0 0  6667
2 28874  55.3027 103.5376 0084967 234.9648 260.2656  2.00569970 55430
GPS BIIRM-2 (PRN 31)    
1 29486U 06042A   13109.39364616 -.00000063  00000-0  00000+0 0   601
2 29486  56.1824 342.6558 0080970 316.1626 205.4724  2.00574605 48138
GPS BIIRM-3 (PRN 12)    
1 29601U 06052A   13109.30592897 -.00000045  00000-0  00000+0 0   897
2 29601  56.3625  43.0591 0044428   9.6960 130.0550  2.00574405 47047
GPS BIIRM-4 (PRN 15)    
1 32260U 07047A   13109.48758211 -.00000016  00000-0  00000+0 0  7985
2 32260  53.9381 279.6610 0053781   7.0863  36.3282  2.00554519 40439
GPS BIIRM-5 (PRN 29)    
1 32384U 07062A   13109.43445817  .00000067  00000-0  00000+0 0  8345
2 32384  55.3388 104.0325 0021568 296.5745 201.4619  2.00565103 39163
GPS BIIRM-6 (PRN 07)    
1 32711U 08012A   13108.84019079 -.00000067  00000-0  10000-3 0  5899
2 32711  55.8958 342.4281 0062195 194.4713 165.3931  2.00560940 37365
GPS BIIRM-7 (PRN 27)    
1 34661U 09014A   13109.47085931 -.00000048  00000-0  00000+0 0  5881
2 34661  55.9996  41.8274 0059814  46.7192 117.8311  2.00566619 29881
GPS BIIRM-8 (PRN 05)    
1 35752U 09043A   13109.35840366 -.00000027  00000-0  00000+0 0  3439
2 35752  54.3700 221.1477 0029858  12.0858  29.5552  2.00571461 26948
GPS BIIF-1  (PRN 25)    
1 36585U 10022A   13109.43166655 -.00000050  00000-0  00000+0 0  1540
2 36585  55.7225  40.8867 0023947  29.9768 172.8895  2.00577884 21198
GPS BIIF-2  (PRN 01)    
1 37753U 11036A   13109.13556664  .00000031  00000-0  00000+0 0  6198
2 37753  55.0164 161.3291 0017307   8.2217  64.3755  2.00560302 12875
GPS BIIF-3  (PRN 24)    
1 38833U 12053A   13109.02200175 -.00000066  00000-0  00000+0 0  1654
2 38833  54.9532 340.8233 0008588   6.9036 353.1516  2.00562040  3939
